NORAD_CAT_ID,OBJECT_NAME,OBJECT_TYPE,EPOCH,MEAN_MOTION,ECCENTRICITY,INCLINATION,RA_OF_ASC_NODE,ARG_OF_PERICENTER,MEAN_ANOMALY,BSTAR,MEAN_MOTION_DOT,MEAN_MOTION_DDOT,TLE_LINE0,TLE_LINE1,TLE_LINE2,SEMIMAJOR_AXIS,PERIOD,APOGEE,PERIGEE,DECAYED
49178.0,STARLINK-3086,PAYLOAD,2023-02-05 13:49:52,14.98331031,0.0002703,69.9983,258.8316,274.8398,85.2452,-1.2782e-05,-2.45e-06,0.0,0 STARLINK-3086,1 49178U 21082BA  23036.57630360 -.00000245  00000-0 -12782-4 0  9993,2 49178  69.9983 258.8316 0002703 274.8398  85.2452 14.98331031 78151,6950.19,96.107,573.933,570.176,0.0
49178.0,STARLINK-3086,PAYLOAD,2023-02-05 21:50:32,14.98330517,0.0002736,69.9983,257.99,274.282,85.8026,-1.8161e-05,-3.1e-06,0.0,0 STARLINK-3086,1 49178U 21082BA  23036.91010323 -.00000310  00000-0 -18161-4 0  9992,2 49178  69.9983 257.9900 0002736 274.2820  85.8026 14.98330517 78207,6950.191,96.107,573.958,570.155,0.0
49178.0,STARLINK-3086,PAYLOAD,2023-02-06 01:02:48,14.98331601,0.0002785,69.9981,257.6531,274.7469,85.3372,-7.4929e-06,-1.82e-06,0.0,0 STARLINK-3086,1 49178U 21082BA  23037.04362212 -.00000182  00000-0 -74929-5 0  9996,2 49178  69.9981 257.6531 0002785 274.7469  85.3372 14.98331601 78226,6950.188,96.107,573.989,570.117,0.0
49178.0,STARLINK-3086,PAYLOAD,2023-02-06 20:16:25,14.98334647,0.0002804,69.9979,255.6332,274.4007,85.6832,1.846e-06,-7.1e-07,0.0,0 STARLINK-3086,1 49178U 21082BA  23037.84473896 -.00000071  00000-0  18460-5 0  9999,2 49178  69.9979 255.6332 0002804 274.4007  85.6832 14.98334647 78347,6950.179,96.107,573.992,570.095,0.0
49178.0,STARLINK-3086,PAYLOAD,2023-02-06 21:52:33,14.98335625,0.000279,69.9979,255.4648,274.4991,85.5849,1.3285e-05,6.6e-07,0.0,0 STARLINK-3086,1 49178U 21082BA  23037.91149783  .00000066  00000-0  13285-4 0  9994,2 49178  69.9979 255.4648 0002790 274.4991  85.5849 14.98335625 78356,6950.175,96.107,573.98,570.101,0.0
49178.0,STARLINK-3086,PAYLOAD,2023-02-06 23:28:41,14.98336227,0.0002783,69.9979,255.2965,274.5542,85.5299,2.0211e-05,1.48e-06,0.0,0 STARLINK-3086,1 49178U 21082BA  23037.97825703  .00000148  00000-0  20211-4 0  9991,2 49178  69.9979 255.2965 0002783 274.5542  85.5299 14.98336227 78360,6950.174,96.107,573.973,570.104,0.0
49178.0,STARLINK-3086,PAYLOAD,2023-02-07 15:30:02,14.98328181,0.0002814,69.9977,253.6132,274.3868,85.697,4.732e-05,4.72e-06,0.0,0 STARLINK-3086,1 49178U 21082BA  23038.64586127  .00000472  00000-0  47320-4 0  9990,2 49178  69.9977 253.6132 0002814 274.3868  85.6970 14.98328181 78468,6950.199,96.107,574.019,570.108,0.0
49178.0,STARLINK-3086,PAYLOAD,2023-02-07 21:54:34,14.98328846,0.0002825,69.9977,252.9398,274.0777,86.0059,5.0784e-05,5.13e-06,0.0,0 STARLINK-3086,1 49178U 21082BA  23038.91290122  .00000513  00000-0  50784-4 0  9991,2 49178  69.9977 252.9398 0002825 274.0777  86.0059 14.98328846 78508,6950.196,96.107,574.025,570.098,0.0
49178.0,STARLINK-3086,PAYLOAD,2023-02-08 01:06:50,14.98330166,0.0002831,69.9977,252.6029,274.0553,86.0282,5.9986e-05,6.23e-06,0.0,0 STARLINK-3086,1 49178U 21082BA  23039.04642017  .00000623  00000-0  59986-4 0  9995,2 49178  69.9977 252.6029 0002831 274.0553  86.0282 14.98330166 78523,6950.192,96.107,574.025,570.09,0.0
49178.0,STARLINK-3086,PAYLOAD,2023-02-08 18:44:19,14.98329282,0.000263,69.998,250.7507,265.4409,94.6449,9.3474e-06,1.9e-07,0.0,0 STARLINK-3086,1 49178U 21082BA  23039.78078241  .00000019  00000-0  93474-5 0  9998,2 49178  69.9980 250.7507 0002630 265.4409  94.6449 14.98329282 78637,6950.195,96.107,573.888,570.232,0.0
49178.0,STARLINK-3086,PAYLOAD,2023-02-08 21:56:35,14.98328921,0.000265,69.998,250.4141,266.4639,93.6217,4.4217e-06,-4e-07,0.0,0 STARLINK-3086,1 49178U 21082BA  23039.91430313 -.00000040  00000-0  44217-5 0  9991,2 49178  69.9980 250.4141 0002650 266.4639  93.6217 14.98328921 78659,6950.196,96.107,573.903,570.219,0.0
49178.0,STARLINK-3086,PAYLOAD,2023-02-09 01:08:51,14.98329835,0.000265,69.9981,250.0773,266.8674,93.2182,1.3997e-05,7.4e-07,0.0,0 STARLINK-3086,1 49178U 21082BA  23040.04782233  .00000074  00000-0  13997-4 0  9994,2 49178  69.9981 250.0773 0002650 266.8674  93.2182 14.98329835 78674,6950.193,96.107,573.9,570.217,0.0
49178.0,STARLINK-3086,PAYLOAD,2023-02-09 20:22:28,14.98332156,0.0002815,69.9979,248.0573,270.9201,89.1635,8.0977e-05,8.73e-06,0.0,0 STARLINK-3086,1 49178U 21082BA  23040.84893994  .00000873  00000-0  80977-4 0  9998,2 49178  69.9979 248.0573 0002815 270.9201  89.1635 14.98332156 78791,6950.186,96.107,574.008,570.095,0.0
49178.0,STARLINK-3086,PAYLOAD,2023-02-09 23:34:44,14.98333227,0.0002881,69.9977,247.7202,272.0726,88.0103,8.7848e-05,9.55e-06,0.0,0 STARLINK-3086,1 49178U 21082BA  23040.98245902  .00000955  00000-0  87848-4 0  9998,2 49178  69.9977 247.7202 0002881 272.0726  88.0103 14.98333227 78813,6950.183,96.107,574.05,570.046,0.0
49178.0,STARLINK-3086,PAYLOAD,2023-02-10 20:24:29,14.98335528,0.000291,69.9975,245.5322,271.8892,88.1934,0.0001185,1.321e-05,0.0,0 STARLINK-3086,1 49178U 21082BA  23041.85033608  .00001321  00000-0  11850-3 0  9990,2 49178  69.9975 245.5322 0002910 271.8892  88.1934 14.98335528 78947,6950.176,96.107,574.063,570.018,0.0
49178.0,STARLINK-3086,PAYLOAD,2023-02-11 01:12:53,14.98336268,0.0002924,69.9978,245.0272,272.0995,87.9829,0.00011863,1.323e-05,0.0,0 STARLINK-3086,1 49178U 21082BA  23042.05061523  .00001323  00000-0  11863-3 0  9996,2 49178  69.9978 245.0272 0002924 272.0995  87.9829 14.98336268 78976,6950.174,96.107,574.071,570.006,0.0
49178.0,STARLINK-3086,PAYLOAD,2023-02-12 06:03:18,14.98355167,0.0002934,69.9989,241.9978,276.0513,84.0312,-0.00041975,-5.101e-05,0.0,0 STARLINK-3086,1 49178U 21082BA  23043.25229213 -.00005101  00000-0 -41975-3 0  9998,2 49178  69.9989 241.9978 0002934 276.0513  84.0312 14.98355167 79152,6950.115,96.105,574.019,569.941,0.0
49178.0,STARLINK-3086,PAYLOAD,2023-02-12 12:27:51,14.98299045,0.0002705,69.9987,241.3249,268.1626,91.9223,0.00059559,7.015e-05,0.0,0 STARLINK-3086,1 49178U 21082BA  23043.51934138  .00007015  00000-0  59559-3 0  9997,2 49178  69.9987 241.3249 0002705 268.1626  91.9223 14.98299045 79192,6950.289,96.109,574.034,570.274,0.0
49178.0,STARLINK-3086,PAYLOAD,2023-02-12 18:52:23,14.98333288,0.0002831,69.9987,240.6516,270.7544,89.3291,2.3036e-05,1.82e-06,0.0,0 STARLINK-3086,1 49178U 21082BA  23043.78637803  .00000182  00000-0  23036-4 0  9995,2 49178  69.9987 240.6516 0002831 270.7544  89.3291 14.98333288 79238,6950.183,96.107,574.015,570.08,0.0
49178.0,STARLINK-3086,PAYLOAD,2023-02-12 23:40:47,14.98318811,0.0002801,69.9988,240.1465,268.6285,91.4553,0.00032125,3.741e-05,0.0,0 STARLINK-3086,1 49178U 21082BA  23043.98666118  .00003741  00000-0  32125-3 0  9990,2 49178  69.9988 240.1465 0002801 268.6285  91.4553 14.98318811 79265,6950.227,96.108,574.039,570.146,0.0
49178.0,STARLINK-3086,PAYLOAD,2023-02-13 23:42:48,14.98329842,0.000298,69.9982,237.6207,271.1065,88.9752,5.9393e-05,6.16e-06,0.0,0 STARLINK-3086,1 49178U 21082BA  23044.98805934  .00000616  00000-0  59393-4 0  9997,2 49178  69.9982 237.6207 0002980 271.1065  88.9752 14.98329842 79412,6950.193,96.107,574.13,569.987,0.0
49178.0,STARLINK-3086,PAYLOAD,2023-02-14 12:31:52,14.98328117,0.0003079,69.9985,236.2749,270.9444,89.1362,5.5588e-05,5.7e-06,0.0,0 STARLINK-3086,1 49178U 21082BA  23045.52214059  .00000570  00000-0  55588-4 0  9991,2 49178  69.9985 236.2749 0003079 270.9444  89.1362 14.98328117 79491,6950.199,96.107,574.204,569.924,0.0
49178.0,STARLINK-3086,PAYLOAD,2023-02-14 18:56:24,14.98332704,0.0002998,69.998,235.6005,270.7289,89.3526,5.5896e-05,5.74e-06,0.0,0 STARLINK-3086,1 49178U 21082BA  23045.78917779  .00000574  00000-0  55896-4 0  9994,2 49178  69.9980 235.6005 0002998 270.7289  89.3526 14.98332704 79534,6950.185,96.107,574.133,569.966,0.0
49178.0,STARLINK-3086,PAYLOAD,2023-02-15 06:09:21,14.98332157,0.0003011,69.9983,234.4222,270.6951,89.3863,6.4989e-05,6.83e-06,0.0,0 STARLINK-3086,1 49178U 21082BA  23046.25649758  .00000683  00000-0  64989-4 0  9990,2 49178  69.9983 234.4222 0003011 270.6951  89.3863 14.98332157 79601,6950.186,96.107,574.144,569.959,0.0
49178.0,STARLINK-3086,PAYLOAD,2023-02-15 12:33:53,14.98332256,0.0003006,69.9979,233.7489,270.6764,89.405,8.0865e-05,8.72e-06,0.0,0 STARLINK-3086,1 49178U 21082BA  23046.52353688  .00000872  00000-0  80865-4 0  9995,2 49178  69.9979 233.7489 0003006 270.6764  89.4050 14.98332256 79642,6950.186,96.107,574.14,569.962,0.0
49178.0,STARLINK-3086,PAYLOAD,2023-02-15 22:10:41,14.98335478,0.0002987,69.9979,232.7389,270.588,89.4936,0.00010916,1.21e-05,0.0,0 STARLINK-3086,1 49178U 21082BA  23046.92409383  .00001210  00000-0  10916-3 0  9999,2 49178  69.9979 232.7389 0002987 270.5880  89.4936 14.98335478 79704,6950.176,96.107,574.117,569.965,0.0
49178.0,STARLINK-3086,PAYLOAD,2023-02-16 06:11:21,14.98346557,0.0002941,69.9979,231.8973,269.0755,91.0067,-0.00014493,-1.823e-05,0.0,0 STARLINK-3086,1 49178U 21082BA  23047.25789220 -.00001823  00000-0 -14493-3 0  9993,2 49178  69.9979 231.8973 0002941 269.0755  91.0067 14.98346557 79756,6950.142,96.106,574.051,569.963,0.0
49178.0,STARLINK-3086,PAYLOAD,2023-02-16 12:35:54,14.98333918,0.000299,69.9979,231.224,270.582,89.4997,7.8618e-05,8.45e-06,0.0,0 STARLINK-3086,1 49178U 21082BA  23047.52493429  .00000845  00000-0  78618-4 0  9997,2 49178  69.9979 231.2240 0002990 270.5820  89.4997 14.98333918 79795,6950.181,96.107,574.124,569.968,0.0
49178.0,STARLINK-3086,PAYLOAD,2023-02-16 22:12:42,14.98335472,0.0002993,69.9981,230.214,270.5415,89.5401,7.1161e-05,7.56e-06,0.0,0 STARLINK-3086,1 49178U 21082BA  23047.92549212  .00000756  00000-0  71161-4 0  9990,2 49178  69.9981 230.2140 0002993 270.5415  89.5401 14.98335472 79854,6950.176,96.107,574.121,569.961,0.0
49178.0,STARLINK-3086,PAYLOAD,2023-02-17 12:37:55,14.98331878,0.000293,69.9983,228.699,270.7646,89.3178,-1.4163e-06,-1.1e-06,0.0,0 STARLINK-3086,1 49178U 21082BA  23048.52633498 -.00000110  00000-0 -14163-5 0  9993,2 49178  69.9983 228.6990 0002930 270.7646  89.3178 14.98331878 79944,6950.187,96.107,574.088,570.016,0.0
